{"type":"FeatureCollection","features":[{"type":"Feature","properties":{"gebiet":"01","anzeigename":"PLZ-2 01","typ":"PLZ2"},"geometry":{"type":"Polygon","coordinates":[[[5.5,47.0],[6.05,47.0],[6.05,47.3],[5.5,47.3],[5.5,47.0]]]}},{"type":"Feature","properties":{"gebiet":"02","anzeigename":"PLZ-2 02","typ":"PLZ2"},"geometry":{"type":"Polygon","coordinates":[[[6.15,47.0],[6.7,47.0],[6.7,47.3],[6.15,47.3],[6.15,47.0]]]}},{"type":"Feature","properties":{"gebiet":"03","anzeigename":"PLZ-2 03","typ":"PLZ2"},"geometry":{"type":"Polygon","coordinates":[[[6.8,47.0],[7.35,47.0],[7.35,47.3],[6.8,47.3],[6.8,47.0]]]}},{"type":"Feature","properties":{"gebiet":"04","anzeigename":"PLZ-2 04","typ":"PLZ2"},"geometry":{"type":"Polygon","coordinates":[[[7.45,47.0],[8.0,47.0],[8.0,47.3],[7.45,47.3],[7.45,47.0]]]}},{"type":"Feature","properties":{"gebiet":"06","anzeigename":"PLZ-2 06","typ":"PLZ2"},"geometry":{"type":"Polygon","coordinates":[[[8.75,47.0],[9.3,47.0],[9.3,47.3],[8.75,47.3],[8.75,47.0]]]}},{"type":"Feature","properties":{"gebiet":"07","anzeigename":"PLZ-2 07","typ":"PLZ2"},"geometry":{"type":"Polygon","coordinates":[[[9.4,47.0],[9.950000000000001,47.0],[9.950000000000001,47.3],[9.4,47.3],[9.4,47.0]]]}},{"type":"Feature","properties":{"gebiet":"08","anzeigename":"PLZ-2 08","typ":"PLZ2"},"geometry":{"type":"Polygon","coordinates":[[[10.05,47.0],[10.600000000000001,47.0],[10.600000000000001,47.3],[10.05,47.3],[10.05,47.0]]]}},{"type":"Feature","properties":{"gebiet":"09","anzeigename":"PLZ-2 09","typ":"PLZ2"},"geometry":{"type":"Polygon","coordinates":[[[10.7,47.0],[11.25,47.0],[11.25,47.3],[10.7,47.3],[10.7,47.0]]]}},{"type":"Feature","properties":{"gebiet":"10","anzeigename":"PLZ-2 10","typ":"PLZ2"},"geometry":{"type":"Polygon","coordinates":[[[11.350000000000001,47.0],[11.900000000000002,47.0],[11.900000000000002,47.3],[11.350000000000001,47.3],[11.350000000000001,47.0]]]}},{"type":"Feature","properties":{"gebiet":"11","anzeigename":"PLZ-2 11","typ":"PLZ2"},"geometry":{"type":"Polygon","coordinates":[[[5.5,47.38],[6.05,47.38],[6.05,47.68],[5.5,47.68],[5.5,47.38]]]}},{"type":"Feature","properties":{"gebiet":"12","anzeigename":"PLZ-2 12","typ":"PLZ2"},"geometry":{"type":"Polygon","coordinates":[[[6.15,47.38],[6.7,47.38],[6.7,47.68],[6.15,47.68],[6.15,47.38]]]}},{"type":"Feature","properties":{"gebiet":"13","anzeigename":"PLZ-2 13","typ":"PLZ2"},"geometry":{"type":"Polygon","coordinates":[[[6.8,47.38],[7.35,47.38],[7.35,47.68],[6.8,47.68],[6.8,47.38]]]}},{"type":"Feature","properties":{"gebiet":"14","anzeigename":"PLZ-2 14","typ":"PLZ2"},"geometry":{"type":"Polygon","coordinates":[[[7.45,47.38],[8.0,47.38],[8.0,47.68],[7.45,47.68],[7.45,47.38]]]}},{"type":"Feature","properties":{"gebiet":"15","anzeigename":"PLZ-2 15","typ":"PLZ2"},"geometry":{"type":"Polygon","coordinates":[[[8.1,47.38],[8.65,47.38],[8.65,47.68],[8.1,47.68],[8.1,47.38]]]}},{"type":"Feature","properties":{"gebiet":"16","anzeigename":"PLZ-2 16","typ":"PLZ2"},"geometry":{"type":"Polygon","coordinates":[[[8.75,47.38],[9.3,47.38],[9.3,47.68],[8.75,47.68],[8.75,47.38]]]}},{"type":"Feature","properties":{"gebiet":"17","anzeigename":"PLZ-2 17","typ":"PLZ2"},"geometry":{"type":"Polygon","coordinates":[[[9.4,47.38],[9.950000000000001,47.38],[9.950000000000001,47.68],[9.4,47.68],[9.4,47.38]]]}},{"type":"Feature","properties":{"gebiet":"18","anzeigename":"PLZ-2 18","typ":"PLZ2"},"geometry":{"type":"Polygon","coordinates":[[[10.05,47.38],[10.600000000000001,47.38],[10.600000000000001,47.68],[10.05,47.68],[10.05,47.38]]]}},{"type":"Feature","properties":{"gebiet":"19","anzeigename":"PLZ-2 19","typ":"PLZ2"},"geometry":{"type":"Polygon","coordinates":[[[10.7,47.38],[11.25,47.38],[11.25,47.68],[10.7,47.68],[10.7,47.38]]]}},{"type":"Feature","properties":{"gebiet":"20","anzeigename":"PLZ-2 20","typ":"PLZ2"},"geometry":{"type":"Polygon","coordinates":[[[11.350000000000001,47.38],[11.900000000000002,47.38],[11.900000000000002,47.68],[11.350000000000001,47.68],[11.350000000000001,47.38]]]}},{"type":"Feature","properties":{"gebiet":"21","anzeigename":"PLZ-2 21","typ":"PLZ2"},"geometry":{"type":"Polygon","coordinates":[[[5.5,47.76],[6.05,47.76],[6.05,48.059999999999995],[5.5,48.059999999999995],[5.5,47.76]]]}},{"type":"Feature","properties":{"gebiet":"22","anzeigename":"PLZ-2 22","typ":"PLZ2"},"geometry":{"type":"Polygon","coordinates":[[[6.15,47.76],[6.7,47.76],[6.7,48.059999999999995],[6.15,48.059999999999995],[6.15,47.76]]]}},{"type":"Feature","properties":{"gebiet":"23","anzeigename":"PLZ-2 23","typ":"PLZ2"},"geometry":{"type":"Polygon","coordinates":[[[6.8,47.76],[7.35,47.76],[7.35,48.059999999999995],[6.8,48.059999999999995],[6.8,47.76]]]}},{"type":"Feature","properties":{"gebiet":"24","anzeigename":"PLZ-2 24","typ":"PLZ2"},"geometry":{"type":"Polygon","coordinates":[[[7.45,47.76],[8.0,47.76],[8.0,48.059999999999995],[7.45,48.059999999999995],[7.45,47.76]]]}},{"type":"Feature","properties":{"gebiet":"25","anzeigename":"PLZ-2 25","typ":"PLZ2"},"geometry":{"type":"Polygon","coordinates":[[[8.1,47.76],[8.65,47.76],[8.65,48.059999999999995],[8.1,48.059999999999995],[8.1,47.76]]]}},{"type":"Feature","properties":{"gebiet":"26","anzeigename":"PLZ-2 26","typ":"PLZ2"},"geometry":{"type":"Polygon","coordinates":[[[8.75,47.76],[9.3,47.76],[9.3,48.059999999999995],[8.75,48.059999999999995],[8.75,47.76]]]}},{"type":"Feature","properties":{"gebiet":"27","anzeigename":"PLZ-2 27","typ":"PLZ2"},"geometry":{"type":"Polygon","coordinates":[[[9.4,47.76],[9.950000000000001,47.76],[9.950000000000001,48.059999999999995],[9.4,48.059999999999995],[9.4,47.76]]]}},{"type":"Feature","properties":{"gebiet":"28","anzeigename":"PLZ-2 28","typ":"PLZ2"},"geometry":{"type":"Polygon","coordinates":[[[10.05,47.76],[10.600000000000001,47.76],[10.600000000000001,48.059999999999995],[10.05,48.059999999999995],[10.05,47.76]]]}},{"type":"Feature","properties":{"gebiet":"29","anzeigename":"PLZ-2 29","typ":"PLZ2"},"geometry":{"type":"Polygon","coordinates":[[[10.7,47.76],[11.25,47.76],[11.25,48.059999999999995],[10.7,48.059999999999995],[10.7,47.76]]]}},{"type":"Feature","properties":{"gebiet":"30","anzeigename":"PLZ-2 30","typ":"PLZ2"},"geometry":{"type":"Polygon","coordinates":[[[11.350000000000001,47.76],[11.900000000000002,47.76],[11.900000000000002,48.059999999999995],[11.350000000000001,48.059999999999995],[11.350000000000001,47.76]]]}},{"type":"Feature","properties":{"gebiet":"31","anzeigename":"PLZ-2 31","typ":"PLZ2"},"geometry":{"type":"Polygon","coordinates":[[[5.5,48.14],[6.05,48.14],[6.05,48.44],[5.5,48.44],[5.5,48.14]]]}},{"type":"Feature","properties":{"gebiet":"32","anzeigename":"PLZ-2 32","typ":"PLZ2"},"geometry":{"type":"Polygon","coordinates":[[[6.15,48.14],[6.7,48.14],[6.7,48.44],[6.15,48.44],[6.15,48.14]]]}},{"type":"Feature","properties":{"gebiet":"33","anzeigename":"PLZ-2 33","typ":"PLZ2"},"geometry":{"type":"Polygon","coordinates":[[[6.8,48.14],[7.35,48.14],[7.35,48.44],[6.8,48.44],[6.8,48.14]]]}},{"type":"Feature","properties":{"gebiet":"34","anzeigename":"PLZ-2 34","typ":"PLZ2"},"geometry":{"type":"Polygon","coordinates":[[[7.45,48.14],[8.0,48.14],[8.0,48.44],[7.45,48.44],[7.45,48.14]]]}},{"type":"Feature","properties":{"gebiet":"35","anzeigename":"PLZ-2 35","typ":"PLZ2"},"geometry":{"type":"Polygon","coordinates":[[[8.1,48.14],[8.65,48.14],[8.65,48.44],[8.1,48.44],[8.1,48.14]]]}},{"type":"Feature","properties":{"gebiet":"36","anzeigename":"PLZ-2 36","typ":"PLZ2"},"geometry":{"type":"Polygon","coordinates":[[[8.75,48.14],[9.3,48.14],[9.3,48.44],[8.75,48.44],[8.75,48.14]]]}},{"type":"Feature","properties":{"gebiet":"37","anzeigename":"PLZ-2 37","typ":"PLZ2"},"geometry":{"type":"Polygon","coordinates":[[[9.4,48.14],[9.950000000000001,48.14],[9.950000000000001,48.44],[9.4,48.44],[9.4,48.14]]]}},{"type":"Feature","properties":{"gebiet":"38","anzeigename":"PLZ-2 38","typ":"PLZ2"},"geometry":{"type":"Polygon","coordinates":[[[10.05,48.14],[10.600000000000001,48.14],[10.600000000000001,48.44],[10.05,48.44],[10.05,48.14]]]}},{"type":"Feature","properties":{"gebiet":"39","anzeigename":"PLZ-2 39","typ":"PLZ2"},"geometry":{"type":"Polygon","coordinates":[[[10.7,48.14],[11.25,48.14],[11.25,48.44],[10.7,48.44],[10.7,48.14]]]}},{"type":"Feature","properties":{"gebiet":"40","anzeigename":"PLZ-2 40","typ":"PLZ2"},"geometry":{"type":"Polygon","coordinates":[[[11.350000000000001,48.14],[11.900000000000002,48.14],[11.900000000000002,48.44],[11.350000000000001,48.44],[11.350000000000001,48.14]]]}},{"type":"Feature","properties":{"gebiet":"41","anzeigename":"PLZ-2 41","typ":"PLZ2"},"geometry":{"type":"Polygon","coordinates":[[[5.5,48.52],[6.05,48.52],[6.05,48.82],[5.5,48.82],[5.5,48.52]]]}},{"type":"Feature","properties":{"gebiet":"42","anzeigename":"PLZ-2 42","typ":"PLZ2"},"geometry":{"type":"Polygon","coordinates":[[[6.15,48.52],[6.7,48.52],[6.7,48.82],[6.15,48.82],[6.15,48.52]]]}},{"type":"Feature","properties":{"gebiet":"43","anzeigename":"PLZ-2 43","typ":"PLZ2"},"geometry":{"type":"Polygon","coordinates":[[[6.8,48.52],[7.35,48.52],[7.35,48.82],[6.8,48.82],[6.8,48.52]]]}},{"type":"Feature","properties":{"gebiet":"44","anzeigename":"PLZ-2 44","typ":"PLZ2"},"geometry":{"type":"Polygon","coordinates":[[[7.45,48.52],[8.0,48.52],[8.0,48.82],[7.45,48.82],[7.45,48.52]]]}},{"type":"Feature","properties":{"gebiet":"45","anzeigename":"PLZ-2 45","typ":"PLZ2"},"geometry":{"type":"Polygon","coordinates":[[[8.1,48.52],[8.65,48.52],[8.65,48.82],[8.1,48.82],[8.1,48.52]]]}},{"type":"Feature","properties":{"gebiet":"46","anzeigename":"PLZ-2 46","typ":"PLZ2"},"geometry":{"type":"Polygon","coordinates":[[[8.75,48.52],[9.3,48.52],[9.3,48.82],[8.75,48.82],[8.75,48.52]]]}},{"type":"Feature","properties":{"gebiet":"47","anzeigename":"PLZ-2 47","typ":"PLZ2"},"geometry":{"type":"Polygon","coordinates":[[[9.4,48.52],[9.950000000000001,48.52],[9.950000000000001,48.82],[9.4,48.82],[9.4,48.52]]]}},{"type":"Feature","properties":{"gebiet":"48","anzeigename":"PLZ-2 48","typ":"PLZ2"},"geometry":{"type":"Polygon","coordinates":[[[10.05,48.52],[10.600000000000001,48.52],[10.600000000000001,48.82],[10.05,48.82],[10.05,48.52]]]}},{"type":"Feature","properties":{"gebiet":"49","anzeigename":"PLZ-2 49","typ":"PLZ2"},"geometry":{"type":"Polygon","coordinates":[[[10.7,48.52],[11.25,48.52],[11.25,48.82],[10.7,48.82],[10.7,48.52]]]}},{"type":"Feature","properties":{"gebiet":"50","anzeigename":"PLZ-2 50","typ":"PLZ2"},"geometry":{"type":"Polygon","coordinates":[[[11.350000000000001,48.52],[11.900000000000002,48.52],[11.900000000000002,48.82],[11.350000000000001,48.82],[11.350000000000001,48.52]]]}},{"type":"Feature","properties":{"gebiet":"51","anzeigename":"PLZ-2 51","typ":"PLZ2"},"geometry":{"type":"Polygon","coordinates":[[[5.5,48.9],[6.05,48.9],[6.05,49.199999999999996],[5.5,49.199999999999996],[5.5,48.9]]]}},{"type":"Feature","properties":{"gebiet":"52","anzeigename":"PLZ-2 52","typ":"PLZ2"},"geometry":{"type":"Polygon","coordinates":[[[6.15,48.9],[6.7,48.9],[6.7,49.199999999999996],[6.15,49.199999999999996],[6.15,48.9]]]}},{"type":"Feature","properties":{"gebiet":"53","anzeigename":"PLZ-2 53","typ":"PLZ2"},"geometry":{"type":"Polygon","coordinates":[[[6.8,48.9],[7.35,48.9],[7.35,49.199999999999996],[6.8,49.199999999999996],[6.8,48.9]]]}},{"type":"Feature","properties":{"gebiet":"54","anzeigename":"PLZ-2 54","typ":"PLZ2"},"geometry":{"type":"Polygon","coordinates":[[[7.45,48.9],[8.0,48.9],[8.0,49.199999999999996],[7.45,49.199999999999996],[7.45,48.9]]]}},{"type":"Feature","properties":{"gebiet":"55","anzeigename":"PLZ-2 55","typ":"PLZ2"},"geometry":{"type":"Polygon","coordinates":[[[8.1,48.9],[8.65,48.9],[8.65,49.199999999999996],[8.1,49.199999999999996],[8.1,48.9]]]}},{"type":"Feature","properties":{"gebiet":"56","anzeigename":"PLZ-2 56","typ":"PLZ2"},"geometry":{"type":"Polygon","coordinates":[[[8.75,48.9],[9.3,48.9],[9.3,49.199999999999996],[8.75,49.199999999999996],[8.75,48.9]]]}},{"type":"Feature","properties":{"gebiet":"57","anzeigename":"PLZ-2 57","typ":"PLZ2"},"geometry":{"type":"Polygon","coordinates":[[[9.4,48.9],[9.950000000000001,48.9],[9.950000000000001,49.199999999999996],[9.4,49.199999999999996],[9.4,48.9]]]}},{"type":"Feature","properties":{"gebiet":"58","anzeigename":"PLZ-2 58","typ":"PLZ2"},"geometry":{"type":"Polygon","coordinates":[[[10.05,48.9],[10.600000000000001,48.9],[10.600000000000001,49.199999999999996],[10.05,49.199999999999996],[10.05,48.9]]]}},{"type":"Feature","properties":{"gebiet":"59","anzeigename":"PLZ-2 59","typ":"PLZ2"},"geometry":{"type":"Polygon","coordinates":[[[10.7,48.9],[11.25,48.9],[11.25,49.199999999999996],[10.7,49.199999999999996],[10.7,48.9]]]}},{"type":"Feature","properties":{"gebiet":"60","anzeigename":"PLZ-2 60","typ":"PLZ2"},"geometry":{"type":"Polygon","coordinates":[[[11.350000000000001,48.9],[11.900000000000002,48.9],[11.900000000000002,49.199999999999996],[11.350000000000001,49.199999999999996],[11.350000000000001,48.9]]]}},{"type":"Feature","properties":{"gebiet":"61","anzeigename":"PLZ-2 61","typ":"PLZ2"},"geometry":{"type":"Polygon","coordinates":[[[5.5,49.28],[6.05,49.28],[6.05,49.58],[5.5,49.58],[5.5,49.28]]]}},{"type":"Feature","properties":{"gebiet":"62","anzeigename":"PLZ-2 62","typ":"PLZ2"},"geometry":{"type":"Polygon","coordinates":[[[6.15,49.28],[6.7,49.28],[6.7,49.58],[6.15,49.58],[6.15,49.28]]]}},{"type":"Feature","properties":{"gebiet":"63","anzeigename":"PLZ-2 63","typ":"PLZ2"},"geometry":{"type":"Polygon","coordinates":[[[6.8,49.28],[7.35,49.28],[7.35,49.58],[6.8,49.58],[6.8,49.28]]]}},{"type":"Feature","properties":{"gebiet":"64","anzeigename":"PLZ-2 64","typ":"PLZ2"},"geometry":{"type":"Polygon","coordinates":[[[7.45,49.28],[8.0,49.28],[8.0,49.58],[7.45,49.58],[7.45,49.28]]]}},{"type":"Feature","properties":{"gebiet":"65","anzeigename":"PLZ-2 65","typ":"PLZ2"},"geometry":{"type":"Polygon","coordinates":[[[8.1,49.28],[8.65,49.28],[8.65,49.58],[8.1,49.58],[8.1,49.28]]]}},{"type":"Feature","properties":{"gebiet":"66","anzeigename":"PLZ-2 66","typ":"PLZ2"},"geometry":{"type":"Polygon","coordinates":[[[8.75,49.28],[9.3,49.28],[9.3,49.58],[8.75,49.58],[8.75,49.28]]]}},{"type":"Feature","properties":{"gebiet":"67","anzeigename":"PLZ-2 67","typ":"PLZ2"},"geometry":{"type":"Polygon","coordinates":[[[9.4,49.28],[9.950000000000001,49.28],[9.950000000000001,49.58],[9.4,49.58],[9.4,49.28]]]}},{"type":"Feature","properties":{"gebiet":"68","anzeigename":"PLZ-2 68","typ":"PLZ2"},"geometry":{"type":"Polygon","coordinates":[[[10.05,49.28],[10.600000000000001,49.28],[10.600000000000001,49.58],[10.05,49.58],[10.05,49.28]]]}},{"type":"Feature","properties":{"gebiet":"69","anzeigename":"PLZ-2 69","typ":"PLZ2"},"geometry":{"type":"Polygon","coordinates":[[[10.7,49.28],[11.25,49.28],[11.25,49.58],[10.7,49.58],[10.7,49.28]]]}},{"type":"Feature","properties":{"gebiet":"70","anzeigename":"PLZ-2 70","typ":"PLZ2"},"geometry":{"type":"Polygon","coordinates":[[[11.350000000000001,49.28],[11.900000000000002,49.28],[11.900000000000002,49.58],[11.350000000000001,49.58],[11.350000000000001,49.28]]]}},{"type":"Feature","properties":{"gebiet":"71","anzeigename":"PLZ-2 71","typ":"PLZ2"},"geometry":{"type":"Polygon","coordinates":[[[5.5,49.66],[6.05,49.66],[6.05,49.959999999999994],[5.5,49.959999999999994],[5.5,49.66]]]}},{"type":"Feature","properties":{"gebiet":"72","anzeigename":"PLZ-2 72","typ":"PLZ2"},"geometry":{"type":"Polygon","coordinates":[[[6.15,49.66],[6.7,49.66],[6.7,49.959999999999994],[6.15,49.959999999999994],[6.15,49.66]]]}},{"type":"Feature","properties":{"gebiet":"73","anzeigename":"PLZ-2 73","typ":"PLZ2"},"geometry":{"type":"Polygon","coordinates":[[[6.8,49.66],[7.35,49.66],[7.35,49.959999999999994],[6.8,49.959999999999994],[6.8,49.66]]]}},{"type":"Feature","properties":{"gebiet":"74","anzeigename":"PLZ-2 74","typ":"PLZ2"},"geometry":{"type":"Polygon","coordinates":[[[7.45,49.66],[8.0,49.66],[8.0,49.959999999999994],[7.45,49.959999999999994],[7.45,49.66]]]}},{"type":"Feature","properties":{"gebiet":"75","anzeigename":"PLZ-2 75","typ":"PLZ2"},"geometry":{"type":"Polygon","coordinates":[[[8.1,49.66],[8.65,49.66],[8.65,49.959999999999994],[8.1,49.959999999999994],[8.1,49.66]]]}},{"type":"Feature","properties":{"gebiet":"76","anzeigename":"PLZ-2 76","typ":"PLZ2"},"geometry":{"type":"Polygon","coordinates":[[[8.75,49.66],[9.3,49.66],[9.3,49.959999999999994],[8.75,49.959999999999994],[8.75,49.66]]]}},{"type":"Feature","properties":{"gebiet":"77","anzeigename":"PLZ-2 77","typ":"PLZ2"},"geometry":{"type":"Polygon","coordinates":[[[9.4,49.66],[9.950000000000001,49.66],[9.950000000000001,49.959999999999994],[9.4,49.959999999999994],[9.4,49.66]]]}},{"type":"Feature","properties":{"gebiet":"78","anzeigename":"PLZ-2 78","typ":"PLZ2"},"geometry":{"type":"Polygon","coordinates":[[[10.05,49.66],[10.600000000000001,49.66],[10.600000000000001,49.959999999999994],[10.05,49.959999999999994],[10.05,49.66]]]}},{"type":"Feature","properties":{"gebiet":"79","anzeigename":"PLZ-2 79","typ":"PLZ2"},"geometry":{"type":"Polygon","coordinates":[[[10.7,49.66],[11.25,49.66],[11.25,49.959999999999994],[10.7,49.959999999999994],[10.7,49.66]]]}},{"type":"Feature","properties":{"gebiet":"80","anzeigename":"PLZ-2 80","typ":"PLZ2"},"geometry":{"type":"Polygon","coordinates":[[[11.350000000000001,49.66],[11.900000000000002,49.66],[11.900000000000002,49.959999999999994],[11.350000000000001,49.959999999999994],[11.350000000000001,49.66]]]}},{"type":"Feature","properties":{"gebiet":"81","anzeigename":"PLZ-2 81","typ":"PLZ2"},"geometry":{"type":"Polygon","coordinates":[[[5.5,50.04],[6.05,50.04],[6.05,50.339999999999996],[5.5,50.339999999999996],[5.5,50.04]]]}},{"type":"Feature","properties":{"gebiet":"82","anzeigename":"PLZ-2 82","typ":"PLZ2"},"geometry":{"type":"Polygon","coordinates":[[[6.15,50.04],[6.7,50.04],[6.7,50.339999999999996],[6.15,50.339999999999996],[6.15,50.04]]]}},{"type":"Feature","properties":{"gebiet":"83","anzeigename":"PLZ-2 83","typ":"PLZ2"},"geometry":{"type":"Polygon","coordinates":[[[6.8,50.04],[7.35,50.04],[7.35,50.339999999999996],[6.8,50.339999999999996],[6.8,50.04]]]}},{"type":"Feature","properties":{"gebiet":"84","anzeigename":"PLZ-2 84","typ":"PLZ2"},"geometry":{"type":"Polygon","coordinates":[[[7.45,50.04],[8.0,50.04],[8.0,50.339999999999996],[7.45,50.339999999999996],[7.45,50.04]]]}},{"type":"Feature","properties":{"gebiet":"85","anzeigename":"PLZ-2 85","typ":"PLZ2"},"geometry":{"type":"Polygon","coordinates":[[[8.1,50.04],[8.65,50.04],[8.65,50.339999999999996],[8.1,50.339999999999996],[8.1,50.04]]]}},{"type":"Feature","properties":{"gebiet":"86","anzeigename":"PLZ-2 86","typ":"PLZ2"},"geometry":{"type":"Polygon","coordinates":[[[8.75,50.04],[9.3,50.04],[9.3,50.339999999999996],[8.75,50.339999999999996],[8.75,50.04]]]}},{"type":"Feature","properties":{"gebiet":"87","anzeigename":"PLZ-2 87","typ":"PLZ2"},"geometry":{"type":"Polygon","coordinates":[[[9.4,50.04],[9.950000000000001,50.04],[9.950000000000001,50.339999999999996],[9.4,50.339999999999996],[9.4,50.04]]]}},{"type":"Feature","properties":{"gebiet":"88","anzeigename":"PLZ-2 88","typ":"PLZ2"},"geometry":{"type":"Polygon","coordinates":[[[10.05,50.04],[10.600000000000001,50.04],[10.600000000000001,50.339999999999996],[10.05,50.339999999999996],[10.05,50.04]]]}},{"type":"Feature","properties":{"gebiet":"89","anzeigename":"PLZ-2 89","typ":"PLZ2"},"geometry":{"type":"Polygon","coordinates":[[[10.7,50.04],[11.25,50.04],[11.25,50.339999999999996],[10.7,50.339999999999996],[10.7,50.04]]]}},{"type":"Feature","properties":{"gebiet":"90","anzeigename":"PLZ-2 90","typ":"PLZ2"},"geometry":{"type":"Polygon","coordinates":[[[11.350000000000001,50.04],[11.900000000000002,50.04],[11.900000000000002,50.339999999999996],[11.350000000000001,50.339999999999996],[11.350000000000001,50.04]]]}},{"type":"Feature","properties":{"gebiet":"91","anzeigename":"PLZ-2 91","typ":"PLZ2"},"geometry":{"type":"Polygon","coordinates":[[[5.5,50.42],[6.05,50.42],[6.05,50.72],[5.5,50.72],[5.5,50.42]]]}},{"type":"Feature","properties":{"gebiet":"92","anzeigename":"PLZ-2 92","typ":"PLZ2"},"geometry":{"type":"Polygon","coordinates":[[[6.15,50.42],[6.7,50.42],[6.7,50.72],[6.15,50.72],[6.15,50.42]]]}},{"type":"Feature","properties":{"gebiet":"93","anzeigename":"PLZ-2 93","typ":"PLZ2"},"geometry":{"type":"Polygon","coordinates":[[[6.8,50.42],[7.35,50.42],[7.35,50.72],[6.8,50.72],[6.8,50.42]]]}},{"type":"Feature","properties":{"gebiet":"94","anzeigename":"PLZ-2 94","typ":"PLZ2"},"geometry":{"type":"Polygon","coordinates":[[[7.45,50.42],[8.0,50.42],[8.0,50.72],[7.45,50.72],[7.45,50.42]]]}},{"type":"Feature","properties":{"gebiet":"95","anzeigename":"PLZ-2 95","typ":"PLZ2"},"geometry":{"type":"Polygon","coordinates":[[[8.1,50.42],[8.65,50.42],[8.65,50.72],[8.1,50.72],[8.1,50.42]]]}},{"type":"Feature","properties":{"gebiet":"96","anzeigename":"PLZ-2 96","typ":"PLZ2"},"geometry":{"type":"Polygon","coordinates":[[[8.75,50.42],[9.3,50.42],[9.3,50.72],[8.75,50.72],[8.75,50.42]]]}},{"type":"Feature","properties":{"gebiet":"97","anzeigename":"PLZ-2 97","typ":"PLZ2"},"geometry":{"type":"Polygon","coordinates":[[[9.4,50.42],[9.950000000000001,50.42],[9.950000000000001,50.72],[9.4,50.72],[9.4,50.42]]]}},{"type":"Feature","properties":{"gebiet":"98","anzeigename":"PLZ-2 98","typ":"PLZ2"},"geometry":{"type":"Polygon","coordinates":[[[10.05,50.42],[10.600000000000001,50.42],[10.600000000000001,50.72],[10.05,50.72],[10.05,50.42]]]}},{"type":"Feature","properties":{"gebiet":"99","anzeigename":"PLZ-2 99","typ":"PLZ2"},"geometry":{"type":"Polygon","coordinates":[[[10.7,50.42],[11.25,50.42],[11.25,50.72],[10.7,50.72],[10.7,50.42]]]}}]}